NOAA 19                 
1 33591U 09005A   24230.47931703  .00000607  00000+0  34926-3 0  9999
2 33591  99.0428 286.9147 0014780 118.2301 242.0365 14.13082211800023
NOAA 18                 
1 28654U 05018A   24230.51910903  .00000656  00000+0  37324-3 0  9996
2 28654  98.8719 306.9699 0013288 247.3477 112.6291 14.13288865991835
NOAA 15                 
1 25338U 98030A   24230.53475673  .00000734  00000+0  32138-3 0  9995
2 25338  98.5667 256.3753 0011116 140.7609 219.4380 14.26667957365938
